NORAD_CAT_ID,OBJECT_NAME,OBJECT_TYPE,EPOCH,MEAN_MOTION,ECCENTRICITY,INCLINATION,RA_OF_ASC_NODE,ARG_OF_PERICENTER,MEAN_ANOMALY,BSTAR,MEAN_MOTION_DOT,MEAN_MOTION_DDOT,TLE_LINE0,TLE_LINE1,TLE_LINE2,SEMIMAJOR_AXIS,PERIOD,APOGEE,PERIGEE,DECAYED
55274.0,STARLINK-5236,PAYLOAD,2023-09-25 21:27:44,14.98343248,0.0002779,70.0003,123.2432,269.7851,90.2989,-9.6831e-05,-1.249e-05,0.0,0 STARLINK-5236,1 55274U 23010F   23268.89426385 -.00001249  00000-0 -96831-4 0  9994,2 55274  70.0003 123.2432 0002779 269.7851  90.2989 14.98343248 39099,6950.152,96.106,573.948,570.085,0.0
55274.0,STARLINK-5236,PAYLOAD,2023-09-26 00:40:00,14.98351852,0.0002941,69.9995,122.9067,267.5862,92.496,-0.00015638,-1.959e-05,0.0,0 STARLINK-5236,1 55274U 23010F   23269.02777829 -.00001959  00000-0 -15638-3 0  9995,2 55274  69.9995 122.9067 0002941 267.5862  92.4960 14.98351852 38794,6950.125,96.106,574.034,569.946,0.0
55274.0,STARLINK-5236,PAYLOAD,2023-09-26 15:05:13,14.98323347,0.0002715,70.0004,121.3915,270.9958,89.089,-4.5849e-05,-6.4e-06,0.0,0 STARLINK-5236,1 55274U 23010F   23269.62863203 -.00000640  00000-0 -45849-4 0  9997,2 55274  70.0004 121.3915 0002715 270.9958  89.0890 14.98323347 39205,6950.213,96.107,573.965,570.191,0.0
55274.0,STARLINK-5236,PAYLOAD,2023-09-26 18:17:30,14.98321769,0.0002766,69.9999,121.0545,271.3465,88.7377,-7.1674e-05,-9.48e-06,0.0,0 STARLINK-5236,1 55274U 23010F   23269.76215421 -.00000948  00000-0 -71674-4 0  9991,2 55274  69.9999 121.0545 0002766 271.3465  88.7377 14.98321769 38903,6950.218,96.108,574.006,570.161,0.0
55274.0,STARLINK-5236,PAYLOAD,2023-09-26 21:29:46,14.98322067,0.0002753,69.9999,120.7178,271.0017,89.0827,-6.5644e-05,-8.76e-06,0.0,0 STARLINK-5236,1 55274U 23010F   23269.89567439 -.00000876  00000-0 -65644-4 0  9994,2 55274  69.9999 120.7178 0002753 271.0017  89.0827 14.98322067 39241,6950.217,96.108,573.996,570.169,0.0
55274.0,STARLINK-5236,PAYLOAD,2023-09-27 07:06:34,14.98326492,0.0002698,70.0,119.7078,272.0826,88.0024,-5.9547e-05,-8.03e-06,0.0,0 STARLINK-5236,1 55274U 23010F   23270.29623278 -.00000803  00000-0 -59547-4 0  9999,2 55274  70.0000 119.7078 0002698 272.0826  88.0024 14.98326492 39302,6950.204,96.107,573.944,570.194,0.0
55274.0,STARLINK-5236,PAYLOAD,2023-09-27 18:19:30,14.98330638,0.0003019,69.9992,118.5298,267.4016,92.6797,-6.0987e-05,-8.21e-06,0.0,0 STARLINK-5236,1 55274U 23010F   23270.76354942 -.00000821  00000-0 -60987-4 0  9990,2 55274  69.9992 118.5298 0003019 267.4016  92.6797 14.98330638 39054,6950.191,96.107,574.154,569.958,0.0
55274.0,STARLINK-5236,PAYLOAD,2023-09-28 15:09:15,14.98329359,0.0003056,69.9991,116.3416,267.6142,92.4667,8.1985e-05,8.85e-06,0.0,0 STARLINK-5236,1 55274U 23010F   23271.63142648  .00000885  00000-0  81985-4 0  9994,2 55274  69.9991 116.3416 0003056 267.6142  92.4667 14.98329359 39506,6950.195,96.107,574.184,569.936,0.0
55274.0,STARLINK-5236,PAYLOAD,2023-09-28 18:21:31,14.98329841,0.000306,69.9993,116.0049,267.6127,92.4682,8.4944e-05,9.21e-06,0.0,0 STARLINK-5236,1 55274U 23010F   23271.76494609  .00000921  00000-0  84944-4 0  9994,2 55274  69.9993 116.0049 0003060 267.6127  92.4682 14.98329841 39205,6950.193,96.107,574.185,569.932,0.0
55274.0,STARLINK-5236,PAYLOAD,2023-09-28 21:33:47,14.98329805,0.0003064,69.9994,115.6683,267.5313,92.5495,8.082e-05,8.71e-06,0.0,0 STARLINK-5236,1 55274U 23010F   23271.89846624  .00000871  00000-0  80820-4 0  9999,2 55274  69.9994 115.6683 0003064 267.5313  92.5495 14.98329805 39545,6950.193,96.107,574.188,569.929,0.0
55274.0,STARLINK-5236,PAYLOAD,2023-09-29 18:23:32,14.98330683,0.0003006,69.9999,113.4815,265.3868,94.6948,2.7913e-05,2.4e-06,0.0,0 STARLINK-5236,1 55274U 23010F   23272.76634654  .00000240  00000-0  27913-4 0  9998,2 55274  69.9999 113.4815 0003006 265.3868  94.6948 14.98330683 39351,6950.191,96.107,574.145,569.967,0.0
55274.0,STARLINK-5236,PAYLOAD,2023-09-29 23:11:56,14.98333011,0.0002989,69.9998,112.976,263.1138,96.9681,3.9007e-05,3.72e-06,0.0,0 STARLINK-5236,1 55274U 23010F   23272.96662420  .00000372  00000-0  39007-4 0  9995,2 55274  69.9998 112.9760 0002989 263.1138  96.9681 14.98333011 39704,6950.184,96.107,574.126,569.971,0.0
55274.0,STARLINK-5236,PAYLOAD,2023-09-30 18:25:33,14.98329375,0.0003004,69.9996,110.9548,268.6278,91.4537,-5.7223e-05,-7.76e-06,0.0,0 STARLINK-5236,1 55274U 23010F   23273.76774840 -.00000776  00000-0 -57223-4 0  9994,2 55274  69.9996 110.9548 0003004 268.6278  91.4537 14.98329375 39504,6950.195,96.107,574.148,569.972,0.0
55274.0,STARLINK-5236,PAYLOAD,2023-10-01 13:39:09,14.98333754,0.0003006,69.9993,108.935,268.8893,91.1921,7.7048e-06,-1e-08,0.0,0 STARLINK-5236,1 55274U 23010F   23274.56886281 -.00000001  00000-0  77048-5 0  9994,2 55274  69.9993 108.9350 0003006 268.8893  91.1921 14.98333754 39944,6950.181,96.107,574.136,569.957,0.0
55274.0,STARLINK-5236,PAYLOAD,2023-10-01 18:27:33,14.98333485,0.0003017,69.9992,108.43,268.8305,91.2508,4.6868e-06,-3.7e-07,0.0,0 STARLINK-5236,1 55274U 23010F   23274.76914252 -.00000037  00000-0  46868-5 0  9991,2 55274  69.9992 108.4300 0003017 268.8305  91.2508 14.98333485 39654,6950.182,96.107,574.144,569.95,0.0
55274.0,STARLINK-5236,PAYLOAD,2023-10-01 21:39:49,14.98335343,0.0002994,69.9991,108.0933,268.8968,91.1848,2.788e-05,2.4e-06,0.0,0 STARLINK-5236,1 55274U 23010F   23274.90266029  .00000240  00000-0  27880-4 0  9996,2 55274  69.9991 108.0933 0002994 268.8968  91.1848 14.98335343 39997,6950.176,96.107,574.122,569.96,0.0
55274.0,STARLINK-5236,PAYLOAD,2023-10-02 20:05:43,14.9832813,0.0002938,69.9991,105.7367,268.9252,91.157,1.6148e-05,1e-06,0.0,0 STARLINK-5236,1 55274U 23010F   23275.83730417  .00000100  00000-0  16148-4 0  9996,2 55274  69.9991 105.7367 0002938 268.9252  91.1570 14.98328130 39816,6950.199,96.107,574.106,570.022,0.0
55274.0,STARLINK-5236,PAYLOAD,2023-10-03 13:43:11,14.98331807,0.0002848,69.9991,103.8849,266.9486,93.1347,-3.223e-05,-4.78e-06,0.0,0 STARLINK-5236,1 55274U 23010F   23276.57166292 -.00000478  00000-0 -32230-4 0  9992,2 55274  69.9991 103.8849 0002848 266.9486  93.1347 14.98331807 40245,6950.187,96.107,574.032,570.073,0.0
55274.0,STARLINK-5236,PAYLOAD,2023-10-03 20:07:44,14.98330562,0.000289,69.9991,103.2116,267.0274,93.0555,-4.5472e-05,-6.36e-06,0.0,0 STARLINK-5236,1 55274U 23010F   23276.83870376 -.00000636  00000-0 -45472-4 0  9994,2 55274  69.9991 103.2116 0002890 267.0274  93.0555 14.98330562 40281,6950.191,96.107,574.065,570.048,0.0
55274.0,STARLINK-5236,PAYLOAD,2023-10-04 13:45:12,14.98331484,0.000296,69.9989,101.36,267.2896,92.7924,1.9514e-05,1.4e-06,0.0,0 STARLINK-5236,1 55274U 23010F   23277.57306048  .00000140  00000-0  19514-4 0  9992,2 55274  69.9989 101.3600 0002960 267.2896  92.7924 14.98331484 40397,6950.188,96.107,574.111,569.996,0.0
55274.0,STARLINK-5236,PAYLOAD,2023-10-04 21:45:52,14.98332876,0.000295,69.9991,100.5183,266.9872,93.095,3.4785e-05,3.22e-06,0.0,0 STARLINK-5236,1 55274U 23010F   23277.90685864  .00000322  00000-0  34785-4 0  9994,2 55274  69.9991 100.5183 0002950 266.9872  93.0950 14.98332876 40441,6950.184,96.107,574.099,569.999,0.0
55274.0,STARLINK-5236,PAYLOAD,2023-10-05 13:47:13,14.98326908,0.0002983,69.999,98.8342,270.0887,89.993,-2.3768e-06,-1.21e-06,0.0,0 STARLINK-5236,1 55274U 23010F   23278.57446322 -.00000121  00000-0 -23768-5 0  9991,2 55274  69.9990  98.8342 0002983 270.0887  89.9930 14.98326908 40546,6950.202,96.107,574.141,569.994,0.0
55274.0,STARLINK-5236,PAYLOAD,2023-10-05 18:35:37,14.98327904,0.0003008,69.9989,98.329,269.5996,90.4818,-1.4594e-05,-2.67e-06,0.0,0 STARLINK-5236,1 55274U 23010F   23278.77474308 -.00000267  00000-0 -14594-4 0  9995,2 55274  69.9989  98.3290 0003008 269.5996  90.4818 14.98327904 40251,6950.199,96.107,574.155,569.974,0.0
55274.0,STARLINK-5236,PAYLOAD,2023-10-05 21:47:53,14.98328347,0.0003005,69.9989,97.9923,269.6711,90.4103,-9.3806e-06,-2.05e-06,0.0,0 STARLINK-5236,1 55274U 23010F   23278.90826274 -.00000205  00000-0 -93806-5 0  9999,2 55274  69.9989  97.9923 0003005 269.6711  90.4103 14.98328347 40598,6950.198,96.107,574.152,569.974,0.0
55274.0,STARLINK-5236,PAYLOAD,2023-10-06 13:49:14,14.98331388,0.0002985,69.9992,96.3092,270.0748,90.0069,-2.4814e-05,-3.89e-06,0.0,0 STARLINK-5236,1 55274U 23010F   23279.57586136 -.00000389  00000-0 -24814-4 0  9998,2 55274  69.9992  96.3092 0002985 270.0748  90.0069 14.98331388 40691,6950.189,96.107,574.128,569.979,0.0
55274.0,STARLINK-5236,PAYLOAD,2023-10-06 18:37:38,14.98332541,0.000296,69.9993,95.8046,271.048,89.0339,-5.6658e-06,-1.61e-06,0.0,0 STARLINK-5236,1 55274U 23010F   23279.77613997 -.00000161  00000-0 -56658-5 0  9996,2 55274  69.9993  95.8046 0002960 271.0480  89.0339 14.98332541 40401,6950.185,96.107,574.107,569.993,0.0
55274.0,STARLINK-5236,PAYLOAD,2023-10-06 21:49:54,14.98332645,0.0002971,69.9993,95.4679,271.1778,88.9041,-4.0784e-06,-1.42e-06,0.0,0 STARLINK-5236,1 55274U 23010F   23279.90965969 -.00000142  00000-0 -40784-5 0  9992,2 55274  69.9993  95.4679 0002971 271.1778  88.9041 14.98332645 40742,6950.185,96.107,574.115,569.985,0.0
55274.0,STARLINK-5236,PAYLOAD,2023-10-07 13:51:15,14.98329522,0.0002987,69.9992,93.7847,271.1289,88.9528,3.2779e-05,2.98e-06,0.0,0 STARLINK-5236,1 55274U 23010F   23280.57726000  .00000298  00000-0  32779-4 0  9992,2 55274  69.9992  93.7847 0002987 271.1289  88.9528 14.98329522 40844,6950.194,96.107,574.135,569.983,0.0
55274.0,STARLINK-5236,PAYLOAD,2023-10-07 18:39:39,14.98324372,0.0002996,69.9992,93.2778,271.0239,89.0577,-1.2875e-05,-2.47e-06,0.0,0 STARLINK-5236,1 55274U 23010F   23280.77754476 -.00000247  00000-0 -12875-4 0  9993,2 55274  69.9992  93.2778 0002996 271.0239  89.0577 14.98324372 40558,6950.21,96.107,574.158,569.993,0.0
55274.0,STARLINK-5236,PAYLOAD,2023-10-07 21:51:56,14.98320015,0.0003007,69.9994,92.943,269.0649,91.0165,-6.9969e-05,-9.28e-06,0.0,0 STARLINK-5236,1 55274U 23010F   23280.91106966 -.00000928  00000-0 -69969-4 0  9996,2 55274  69.9994  92.9430 0003007 269.0649  91.0165 14.98320015 40890,6950.224,96.108,574.179,569.999,0.0
